CCSDS_OMM_VERS = 2.0
CREATION_DATE  = 
ORIGINATOR     = 

OBJECT_NAME    = 2026-027E
OBJECT_ID      = 2026-027E
CENTER_NAME    = EARTH
REF_FRAME      = TEME
TIME_SYSTEM    = UTC
MEAN_ELEMENT_THEORY = SGP/SGP4

EPOCH          = 2026-02-16T11:15:59.613408
MEAN_MOTION    = 15.17687795
ECCENTRICITY   = .0008725
INCLINATION    = 97.4888
RA_OF_ASC_NODE = 176.7207
ARG_OF_PERICENTER = 286.5536
MEAN_ANOMALY   = 73.4739

EPHEMERIS_TYPE = 0
CLASSIFICATION_TYPE = U
NORAD_CAT_ID   = 67750
ELEMENT_SET_NO = 999
REV_AT_EPOCH   = 64
BSTAR          = .45622E-3
MEAN_MOTION_DOT = .9139E-4
MEAN_MOTION_DDOT = 0

CCSDS_OMM_VERS = 2.0
CREATION_DATE  = 
ORIGINATOR     = 

OBJECT_NAME    = 2026-027F
OBJECT_ID      = 2026-027F
CENTER_NAME    = EARTH
REF_FRAME      = TEME
TIME_SYSTEM    = UTC
MEAN_ELEMENT_THEORY = SGP/SGP4

EPOCH          = 2026-02-16T11:15:48.465216
MEAN_MOTION    = 15.17758236
ECCENTRICITY   = .0009805
INCLINATION    = 97.4890
RA_OF_ASC_NODE = 176.7209
ARG_OF_PERICENTER = 284.9376
MEAN_ANOMALY   = 75.0772

EPHEMERIS_TYPE = 0
CLASSIFICATION_TYPE = U
NORAD_CAT_ID   = 67751
ELEMENT_SET_NO = 999
REV_AT_EPOCH   = 64
BSTAR          = .73994E-3
MEAN_MOTION_DOT = .14909E-3
MEAN_MOTION_DDOT = 0

CCSDS_OMM_VERS = 2.0
CREATION_DATE  = 
ORIGINATOR     = 

OBJECT_NAME    = 2026-027G
OBJECT_ID      = 2026-027G
CENTER_NAME    = EARTH
REF_FRAME      = TEME
TIME_SYSTEM    = UTC
MEAN_ELEMENT_THEORY = SGP/SGP4

EPOCH          = 2026-02-16T11:15:39.980736
MEAN_MOTION    = 15.17772456
ECCENTRICITY   = .0009031
INCLINATION    = 97.4883
RA_OF_ASC_NODE = 176.7205
ARG_OF_PERICENTER = 288.3298
MEAN_ANOMALY   = 71.6953

EPHEMERIS_TYPE = 0
CLASSIFICATION_TYPE = U
NORAD_CAT_ID   = 67752
ELEMENT_SET_NO = 999
REV_AT_EPOCH   = 64
BSTAR          = .47429E-3
MEAN_MOTION_DOT = .9527E-4
MEAN_MOTION_DDOT = 0

CCSDS_OMM_VERS = 2.0
CREATION_DATE  = 
ORIGINATOR     = 

OBJECT_NAME    = 2026-027H
OBJECT_ID      = 2026-027H
CENTER_NAME    = EARTH
REF_FRAME      = TEME
TIME_SYSTEM    = UTC
MEAN_ELEMENT_THEORY = SGP/SGP4

EPOCH          = 2026-02-16T11:48:24.605280
MEAN_MOTION    = 15.58544350
ECCENTRICITY   = .0272118
INCLINATION    = 97.5139
RA_OF_ASC_NODE = 177.0376
ARG_OF_PERICENTER = 324.0243
MEAN_ANOMALY   = 34.2956

EPHEMERIS_TYPE = 0
CLASSIFICATION_TYPE = U
NORAD_CAT_ID   = 67753
ELEMENT_SET_NO = 999
REV_AT_EPOCH   = 66
BSTAR          = .73751E-3
MEAN_MOTION_DOT = .380982E-2
MEAN_MOTION_DDOT = .22925E-5

CCSDS_OMM_VERS = 2.0
CREATION_DATE  = 
ORIGINATOR     = 

OBJECT_NAME    = 2026-027J
OBJECT_ID      = 2026-027J
CENTER_NAME    = EARTH
REF_FRAME      = TEME
TIME_SYSTEM    = UTC
MEAN_ELEMENT_THEORY = SGP/SGP4

EPOCH          = 2026-02-16T11:41:46.656384
MEAN_MOTION    = 15.62036647
ECCENTRICITY   = .0258404
INCLINATION    = 97.5121
RA_OF_ASC_NODE = 177.0450
ARG_OF_PERICENTER = 323.6928
MEAN_ANOMALY   = 34.7031

EPHEMERIS_TYPE = 0
CLASSIFICATION_TYPE = U
NORAD_CAT_ID   = 67754
ELEMENT_SET_NO = 999
REV_AT_EPOCH   = 60
BSTAR          = .15031E-2
MEAN_MOTION_DOT = .811916E-2
MEAN_MOTION_DDOT = .23293E-5

CCSDS_OMM_VERS = 2.0
CREATION_DATE  = 
ORIGINATOR     = 

OBJECT_NAME    = 2026-028A
OBJECT_ID      = 2026-028A
CENTER_NAME    = EARTH
REF_FRAME      = TEME
TIME_SYSTEM    = UTC
MEAN_ELEMENT_THEORY = SGP/SGP4

EPOCH          = 2026-02-16T06:58:42.571200
MEAN_MOTION    = 1.01589916
ECCENTRICITY   = .0001825
INCLINATION    = 0.5268
RA_OF_ASC_NODE = 287.9889
ARG_OF_PERICENTER = 248.5746
MEAN_ANOMALY   = 183.4121

EPHEMERIS_TYPE = 0
CLASSIFICATION_TYPE = U
NORAD_CAT_ID   = 67756
ELEMENT_SET_NO = 999
REV_AT_EPOCH   = 4
BSTAR          = 0
MEAN_MOTION_DOT = -.244E-5
MEAN_MOTION_DDOT = 0

CCSDS_OMM_VERS = 2.0
CREATION_DATE  = 
ORIGINATOR     = 

OBJECT_NAME    = CREW DRAGON 12
OBJECT_ID      = 2026-031A
CENTER_NAME    = EARTH
REF_FRAME      = TEME
TIME_SYSTEM    = UTC
MEAN_ELEMENT_THEORY = SGP/SGP4

EPOCH          = 2026-02-16T05:09:28.757088
MEAN_MOTION    = 15.48638586
ECCENTRICITY   = .00110177
INCLINATION    = 51.6319
RA_OF_ASC_NODE = 178.5071
ARG_OF_PERICENTER = 103.7643
MEAN_ANOMALY   = 256.4573

EPHEMERIS_TYPE = 0
CLASSIFICATION_TYPE = U
NORAD_CAT_ID   = 67796
ELEMENT_SET_NO = 999
REV_AT_EPOCH   = 42
BSTAR          = .19659974E-3
MEAN_MOTION_DOT = .10277E-3
MEAN_MOTION_DDOT = 0

