2026-027E               
1 67750U 26027E   26047.46943997  .00009139  00000+0  45622-3 0  9995
2 67750  97.4888 176.7207 0008725 286.5536  73.4739 15.17687795   647
2026-027F               
1 67751U 26027F   26047.46931094  .00014909  00000+0  73994-3 0  9995
2 67751  97.4890 176.7209 0009805 284.9376  75.0772 15.17758236   641
2026-027G               
1 67752U 26027G   26047.46921274  .00009527  00000+0  47429-3 0  9999
2 67752  97.4883 176.7205 0009031 288.3298  71.6953 15.17772456   645
2026-027H               
1 67753U 26027H   26047.49195145  .00380982  22925-5  73751-3 0  9993
2 67753  97.5139 177.0376 0272118 324.0243  34.2956 15.58544350   665
2026-027J               
1 67754U 26027J   26047.48734556  .00811916  23293-5  15031-2 0  9999
2 67754  97.5121 177.0450 0258404 323.6928  34.7031 15.62036647   600
2026-028A               
1 67756U 26028A   26047.29077050 -.00000244  00000+0  00000+0 0  9997
2 67756   0.5268 287.9889 0001825 248.5746 183.4121  1.01589916    41
CREW DRAGON 12          
1 67796U 26031A   26047.21491617  .00010277  00000+0  19660-3 0  9998
2 67796  51.6319 178.5071 0011017 103.7643 256.4573 15.48638586   427
